BEIDOU 3 (C01)          
1 36287U 10001A   21179.92793213 -.00000292  00000-0  00000-0 0  9998
2 36287   1.8913  46.9036 0005689  77.2304 267.5924  1.00271977 41968
BEIDOU 5 (C06)          
1 36828U 10036A   21179.79885252 -.00000063  00000-0  00000-0 0  9993
2 36828  54.1790 179.4894 0114367 235.6040 267.2719  1.00257053 40022
BEIDOU 6 (C04)          
1 37210U 10057A   21179.28016117 -.00000124  00000-0  00000-0 0  9990
2 37210   0.8579  48.9019 0004337 115.6918  12.7591  1.00270267 39083
BEIDOU 7 (C07)          
1 37256U 10068A   21179.43085880 -.00000229  00000-0  00000-0 0  9998
2 37256  50.8440 293.8714 0086320 215.5167  38.9643  1.00250089 38599
BEIDOU 8 (C08)          
1 37384U 11013A   21179.91019076 -.00000214  00000-0  00000-0 0  9992
2 37384  59.7910  57.7913 0052123 205.0291  97.6311  1.00250449 37475
BEIDOU 9 (C09)          
1 37763U 11038A   21179.36146803 -.00000037  00000-0  00000-0 0  9991
2 37763  54.4649 181.9353 0084069 226.8567  92.8610  1.00262937 36446
BEIDOU 10 (C10)         
1 37948U 11073A   21179.77548089 -.00000167  00000-0  00000-0 0  9996
2 37948  50.9441 293.4853 0076189 214.9151 142.2081  1.00290569 35204
BEIDOU 11 (C05)         
1 38091U 12008A   21179.93382712  .00000045  00000-0  00000-0 0  9996
2 38091   1.5783  67.9564 0007852 336.2514 267.9479  1.00275622 34286
BEIDOU 12 (C11)         
1 38250U 12018A   21179.55529322 -.00000103  00000-0  00000+0 0  9997
2 38250  56.7513   5.2471 0020084 246.0352 291.3544  1.86234132 62491
BEIDOU 13 (C12)         
1 38251U 12018B   21179.21438391 -.00000103  00000-0  00000+0 0  9996
2 38251  56.6738   4.6053 0010952 245.8740 107.3444  1.86233873 62485
BEIDOU 15 (C14)         
1 38775U 12050B   21178.22610032 -.00000004  00000-0  00000+0 0  9997
2 38775  55.2132 123.6535 0015800 320.2565 287.7715  1.86232177 59842
BEIDOU 16 (C02)         
1 38953U 12059A   21179.91890604 -.00000187  00000-0  00000-0 0  9999
2 38953   1.9957  84.6979 0006830 299.9031 307.4566  1.00271962 31850
BEIDOU 17 (C31)         
1 40549U 15019A   21179.93245939 -.00000191  00000-0  00000-0 0  9994
2 40549  52.4795 316.8561 0038801 187.2307 204.3083  1.00263341 22895
BEIDOU 18 (C57)         
1 40748U 15037A   21179.08631669 -.00000104  00000-0  00000+0 0  9993
2 40748  55.9374   3.6885 0004720  38.1065 139.1223  1.86233419 40310
BEIDOU 19 (C58)         
1 40749U 15037B   21178.35004302 -.00000103  00000-0  00000+0 0  9990
2 40749  55.9383   3.7054 0003623 350.8883 188.7667  1.86232069 40292
BEIDOU 20 (C18)         
1 40938U 15053A   21179.61866473 -.00000150  00000-0  00000-0 0  9996
2 40938  52.0451 279.9340 0047476 192.5493 123.4481  1.00280819 21159
BEIDOU IGSO-6 (C13)     
1 41434U 16021A   21179.63158970 -.00000178  00000-0  00000-0 0  9992
2 41434  57.5763  56.5241 0038019 213.1284 330.8661  1.00267154 19289
BEIDOU-2 G7 (C03)       
1 41586U 16037A   21179.86008045 -.00000365  00000-0  00000-0 0  9997
2 41586   1.7247  67.4144 0009325  18.1760 251.7204  1.00274832 18596
BEIDOU-3 M1 (C19)       
1 43001U 17069A   21179.26238870  .00000003  00000-0  00000+0 0  9999
2 43001  55.3686 123.5693 0011842 293.1247  85.7267  1.86231878 24809
BEIDOU-3 M2 (C20)       
1 43002U 17069B   21179.15356010  .00000003  00000-0  00000+0 0  9995
2 43002  55.3689 123.6102 0010425 311.4737  37.8755  1.86231452 24788
BEIDOU-3 M3 (C27)       
1 43107U 18003A   21179.99215899 -.00000106  00000-0  00000+0 0  9996
2 43107  55.3815   4.7340 0005660  55.7508 301.7199  1.86232544 23560
BEIDOU-3 M4 (C28)       
1 43108U 18003B   21179.17747118 -.00000106  00000-0  00000+0 0  9991
2 43108  55.3744   4.7504 0001879 234.2909 342.1461  1.86232562 23551
BEIDOU-3 M5 (C21)       
1 43207U 18018A   21179.32007572  .00000004  00000-0  00000+0 0  9993
2 43207  55.3282 123.6959 0007897 327.7393  44.4477  1.86231766 22940
BEIDOU-3 M6 (C22)       
1 43208U 18018B   21178.83149557  .00000001  00000-0  00000-0 0  9997
2 43208  55.3272 123.7183 0010115 302.9239  56.9405  1.86231731 22931
BEIDOU-3 M7 (C29)       
1 43245U 18029A   21178.29839200 -.00000104  00000-0  00000+0 0  9995
2 43245  55.3111   2.5830 0001396  73.0546 139.0252  1.86232700 22070
BEIDOU-3 M8 (C30)       
1 43246U 18029B   21179.31720029 -.00000105  00000-0  10000-3 0  9994
2 43246  55.3080   2.5781 0004311   8.5883 212.7405  1.86232911 22082
BEIDOU IGSO-7 (C16)     
1 43539U 18057A   21179.92217456 -.00000089  00000-0  00000-0 0  9999
2 43539  55.0582 178.8491 0039215 223.7527 319.9020  1.00265470 10962
BEIDOU-3 M9 (C23)       
1 43581U 18062A   21179.09042502 -.00000001  00000-0  00000+0 0  9991
2 43581  54.3964 244.2328 0004724 261.9809  17.4242  1.86231975 19823
BEIDOU-3 M10 (C24)      
1 43582U 18062B   21178.47684848  .00000007  00000-0  00000+0 0  9993
2 43582  54.3958 244.2419 0004075 340.8798 338.4904  1.86232102 19814
BEIDOU-3 M11 (C25)      
1 43602U 18067A   21179.18653240  .00000000  00000-0  00000+0 0  9995
2 43602  54.4722 242.8029 0006336 354.8095 122.5857  1.86231746 19323
BEIDOU-3 M12 (C26)      
1 43603U 18067B   21178.71851120  .00000006  00000-0  00000+0 0  9997
2 43603  54.4705 242.7865 0003840 338.4134  95.6544  1.86231697 19330
BEIDOU-3 M13 (C32)      
1 43622U 18072A   21178.41911564 -.00000003  00000-0  00000+0 0  9998
2 43622  55.2900 123.2934 0008353 290.4146 333.0094  1.86231882 18830
BEIDOU-3 M14 (C33)      
1 43623U 18072B   21178.74548249 -.00000001  00000-0  00000+0 0  9999
2 43623  55.2935 123.2759 0006659 311.1423 261.3297  1.86231882 18849
BEIDOU-3 M15 (C34)      
1 43647U 18078A   21178.58418385 -.00000105  00000-0  10000-3 0  9990
2 43647  55.2060   2.7643 0006604   8.2222 351.3313  1.86232506 18346
BEIDOU-3 M16 (C35)      
1 43648U 18078B   21178.74265957 -.00000105  00000-0  00000+0 0  9999
2 43648  55.2016   2.7639 0004791  24.0699 350.1780  1.86232029 18370
BEIDOU-3 G1 (C59)       
1 43683U 18085A   21179.85607205 -.00000288  00000-0  00000-0 0  9998
2 43683   1.0373 225.7750 0002957 353.6008 145.9776  1.00269210  9869
BEIDOU-3 M17 (C36)      
1 43706U 18093A   21179.41204272 -.00000004  00000-0  00000-0 0  9998
2 43706  54.4767 244.0806 0010912 266.2075  93.7480  1.86231905 17745
BEIDOU-3 M18 (C37)      
1 43707U 18093B   21178.62192198  .00000006  00000-0  00000+0 0  9994
2 43707  54.4768 244.1007 0008932 288.4392 352.6339  1.86231885 17712
BEIDOU-3 IGSO-1 (C38)   
1 44204U 19023A   21179.80674284 -.00000233  00000-0  00000-0 0  9997
2 44204  56.0329  56.7978 0018600 191.5889  71.6976  1.00292361  8164
BEIDOU-2 G8             
1 44231U 19027A   21179.92871726 -.00000259  00000-0  00000-0 0  9992
2 44231   0.2625 354.7356 0006222 188.9931 212.2298  1.00265398  7888
BEIDOU-3 IGSO-2 (C39)   
1 44337U 19035A   21179.92121497 -.00000082  00000-0  00000-0 0  9995
2 44337  55.0940 174.8920 0020195 194.1779 347.3652  1.00278086  7506
BEIDOU-3 M23 (C45)      
1 44542U 19061A   21178.68748563  .00000005  00000-0  10000-3 0  9991
2 44542  54.7033 244.1780 0007768 321.2427 316.7901  1.86231277 11970
BEIDOU-3 M24 (C46)      
1 44543U 19061B   21178.30537001  .00000010  00000-0  10000-3 0  9990
2 44543  54.6999 244.1599 0005475 304.2502 348.4630  1.86231719 11968
BEIDOU-3 IGSO-3         
1 44709U 19073A   21179.77731285 -.00000190  00000-0  00000-0 0  9995
2 44709  57.8248 300.0406 0020436 199.7883 164.0776  1.00273122  6266
BEIDOU-3 M21            
1 44793U 19078A   21179.18663789 -.00000106  00000-0  10000-3 0  9992
2 44793  55.0535   2.8055 0006632  14.0995 343.7996  1.86232215 10841
BEIDOU-3 M22            
1 44794U 19078B   21179.86091029 -.00000106  00000-0  00000+0 0  9995
2 44794  55.0283   2.7801 0004486  17.5224 343.4540  1.86232647 10861
BEIDOU-3 M19            
1 44864U 19090A   21178.35937458 -.00000003  00000-0  00000+0 0  9991
2 44864  55.2266 123.5253 0017569 270.1831 358.6821  1.86231947 10415
BEIDOU-3 M20            
1 44865U 19090B   21178.71269779 -.00000001  00000-0  00000+0 0  9994
2 44865  55.2280 123.5455 0016437 284.1529 311.5169  1.86231931 10391
BEIDOU-3 G2             
1 45344U 20017A   21179.91589356 -.00000150  00000-0  00000-0 0  9993
2 45344   2.4120 336.8913 0004289 124.0157 226.0639  1.00269994  5077
BEIDOU-3 G3             
1 45807U 20040A   21179.92191285 -.00000362  00000-0  00000-0 0  9999
2 45807   2.2585 298.6468 0003816 348.0771  72.7955  1.00264607  3890
